{"type": "FeatureCollection", "features": [ {"type": "Feature", "properties": {"norad_id": 38779, "name": "GSAT-10 (GAGAN/PRN 128)", "group": "gnss", "lat": 0.03256131048565811, "lon": -42.80216435824776, "alt_km": 35797.740867152424, "timestamp": "2025-12-02T10:50:47.515096+00:00", "meta": {"OBJECT_NAME": "GSAT-10 (GAGAN/PRN 128)", "OBJECT_ID": "2012-051B", "EPOCH": "2025-12-02T03:54:21.802176", "MEAN_MOTION": 1.00269269, "ECCENTRICITY": 0.0002606, "INCLINATION": 0.0354, "RA_OF_ASC_NODE": 262.0904, "ARG_OF_PERICENTER": 234.6575, "MEAN_ANOMALY": 76.0892, "EPHEMERIS_TYPE": 0, "CLASSIFICATION_TYPE": "U", "NORAD_CAT_ID": 38779, "ELEMENT_SET_NO": 999, "REV_AT_EPOCH": 4812, "BSTAR": 0, "MEAN_MOTION_DOT": -1.43e-06, "MEAN_MOTION_DDOT": 0}, "tle": {"line1": "1 38779U 12051B   25336.16275234 -.00000143  00000+0  00000+0 0  9999", "line2": "2 38779   0.0354 262.0904 0002606 234.6575  76.0892  1.00269269 48129"}}, "geometry": {"type": "Point", "coordinates": [-42.80216435824776, 0.03256131048565811]}}, {"type": "Feature", "properties": {"norad_id": 38833, "name": "GPS BIIF-3  (PRN 24)", "group": "gnss", "lat": 39.63944826457356, "lon": -170.5798312393141, "alt_km": 19719.85891793708, "timestamp": "2025-12-02T10:50:47.515108+00:00", "meta": {"OBJECT_NAME": "GPS BIIF-3  (PRN 24)", "OBJECT_ID": "2012-053A", "EPOCH": "2025-12-01T21:10:58.228032", "MEAN_MOTION": 2.00564835, "ECCENTRICITY": 0.0175482, "INCLINATION": 53.5559, "RA_OF_ASC_NODE": 151.6834, "ARG_OF_PERICENTER": 63.8436, "MEAN_ANOMALY": 297.9871, "EPHEMERIS_TYPE": 0, "CLASSIFICATION_TYPE": "U", "NORAD_CAT_ID": 38833, "ELEMENT_SET_NO": 999, "REV_AT_EPOCH": 9548, "BSTAR": 0, "MEAN_MOTION_DOT": 1.16e-06, "MEAN_MOTION_DDOT": 0}, "tle": {"line1": "1 38833U 12053A   25335.88261838  .00000116  00000+0  00000+0 0  9994", "line2": "2 38833  53.5559 151.6834 0175482  63.8436 297.9871  2.00564835 95486"}}, "geometry": {"type": "Point", "coordinates": [-170.5798312393141, 39.63944826457356]}}, {"type": "Feature", "properties": {"norad_id": 38857, "name": "GSAT0103 (GALILEO-FM3)", "group": "gnss", "lat": 34.02734612138086, "lon": 134.3753831796033, "alt_km": 23222.880159334523, "timestamp": "2025-12-02T10:50:47.515122+00:00", "meta": {"OBJECT_NAME": "GSAT0103 (GALILEO-FM3)", "OBJECT_ID": "2012-055A", "EPOCH": "2025-11-28T20:42:38.723616", "MEAN_MOTION": 1.70473322, "ECCENTRICITY": 0.00022412, "INCLINATION": 55.6842, "RA_OF_ASC_NODE": 107.0477, "ARG_OF_PERICENTER": 266.7022, "MEAN_ANOMALY": 93.2527, "EPHEMERIS_TYPE": 0, "CLASSIFICATION_TYPE": "U", "NORAD_CAT_ID": 38857, "ELEMENT_SET_NO": 999, "REV_AT_EPOCH": 8159, "BSTAR": 0, "MEAN_MOTION_DOT": 5.5e-07, "MEAN_MOTION_DDOT": 0}, "tle": {"line1": "1 38857U 12055A   25332.86294819  .00000055  00000+0  00000+0 0  9994", "line2": "2 38857  55.6842 107.0477 0002241 266.7022  93.2527  1.70473322 81593"}}, "geometry": {"type": "Point", "coordinates": [134.3753831796033, 34.02734612138086]}}, {"type": "Feature", "properties": {"norad_id": 38953, "name": "BEIDOU-2 G6 (C02)", "group": "gnss", "lat": -3.482030756673173, "lon": -41.83224463545799, "alt_km": 35766.40352151357, "timestamp": "2025-12-02T10:50:47.515134+00:00", "meta": {"OBJECT_NAME": "BEIDOU-2 G6 (C02)", "OBJECT_ID": "2012-059A", "EPOCH": "2025-12-02T03:54:44.266176", "MEAN_MOTION": 1.0027097, "ECCENTRICITY": 0.0007292, "INCLINATION": 3.9201, "RA_OF_ASC_NODE": 75.6056, "ARG_OF_PERICENTER": 290.7249, "MEAN_ANOMALY": 207.6781, "EPHEMERIS_TYPE": 0, "CLASSIFICATION_TYPE": "U", "NORAD_CAT_ID": 38953, "ELEMENT_SET_NO": 999, "REV_AT_EPOCH": 4793, "BSTAR": 0, "MEAN_MOTION_DOT": -1.56e-06, "MEAN_MOTION_DDOT": 0}, "tle": {"line1": "1 38953U 12059A   25336.16301234 -.00000156  00000+0  00000+0 0  9995", "line2": "2 38953   3.9201  75.6056 0007292 290.7249 207.6781  1.00270970 47937"}}, "geometry": {"type": "Point", "coordinates": [-41.83224463545799, -3.482030756673173]}}, {"type": "Feature", "properties": {"norad_id": 38977, "name": "LUCH 5B (SDCM/PRN 125)", "group": "gnss", "lat": 2.395994544929532, "lon": -141.95746472409735, "alt_km": 35756.86396506593, "timestamp": "2025-12-02T10:50:47.515145+00:00", "meta": {"OBJECT_NAME": "LUCH 5B (SDCM/PRN 125)", "OBJECT_ID": "2012-061A", "EPOCH": "2025-12-02T00:00:34.725024", "MEAN_MOTION": 1.00269053, "ECCENTRICITY": 0.0007598, "INCLINATION": 10.0566, "RA_OF_ASC_NODE": 51.8026, "ARG_OF_PERICENTER": 188.6334, "MEAN_ANOMALY": 174.4538, "EPHEMERIS_TYPE": 0, "CLASSIFICATION_TYPE": "U", "NORAD_CAT_ID": 38977, "ELEMENT_SET_NO": 999, "REV_AT_EPOCH": 4763, "BSTAR": 0, "MEAN_MOTION_DOT": -1.23e-06, "MEAN_MOTION_DDOT": 0}, "tle": {"line1": "1 38977U 12061A   25336.00040191 -.00000123  00000+0  00000+0 0  9993", "line2": "2 38977  10.0566  51.8026 0007598 188.6334 174.4538  1.00269053 47636"}}, "geometry": {"type": "Point", "coordinates": [-141.95746472409735, 2.395994544929532]}}, {"type": "Feature", "properties": {"norad_id": 39155, "name": "COSMOS 2485 (747)", "group": "gnss", "lat": 49.34141427413334, "lon": -132.12644533426052, "alt_km": 19139.65277028188, "timestamp": "2025-12-02T10:50:47.515156+00:00", "meta": {"OBJECT_NAME": "COSMOS 2485 (747)", "OBJECT_ID": "2013-019A", "EPOCH": "2025-11-24T07:30:54.982368", "MEAN_MOTION": 2.13103115, "ECCENTRICITY": 0.0024274, "INCLINATION": 65.3036, "RA_OF_ASC_NODE": 80.4871, "ARG_OF_PERICENTER": 228.0776, "MEAN_ANOMALY": 131.7167, "EPHEMERIS_TYPE": 0, "CLASSIFICATION_TYPE": "U", "NORAD_CAT_ID": 39155, "ELEMENT_SET_NO": 999, "REV_AT_EPOCH": 9791, "BSTAR": 0, "MEAN_MOTION_DOT": 1.2e-07, "MEAN_MOTION_DDOT": 0}, "tle": {"line1": "1 39155U 13019A   25328.31313637  .00000012  00000+0  00000+0 0  9995", "line2": "2 39155  65.3036  80.4871 0024274 228.0776 131.7167  2.13103115 97916"}}, "geometry": {"type": "Point", "coordinates": [-132.12644533426052, 49.34141427413334]}}, {"type": "Feature", "properties": {"norad_id": 39166, "name": "GPS BIIF-4  (PRN 27)", "group": "gnss", "lat": 22.422404049589087, "lon": 79.96214673818135, "alt_km": 20260.067740168382, "timestamp": "2025-12-02T10:50:47.515168+00:00", "meta": {"OBJECT_NAME": "GPS BIIF-4  (PRN 27)", "OBJECT_ID": "2013-023A", "EPOCH": "2025-12-01T05:56:59.182080", "MEAN_MOTION": 2.00565069, "ECCENTRICITY": 0.0137184, "INCLINATION": 54.6621, "RA_OF_ASC_NODE": 277.0355, "ARG_OF_PERICENTER": 48.4883, "MEAN_ANOMALY": 312.6776, "EPHEMERIS_TYPE": 0, "CLASSIFICATION_TYPE": "U", "NORAD_CAT_ID": 39166, "ELEMENT_SET_NO": 999, "REV_AT_EPOCH": 9191, "BSTAR": 0, "MEAN_MOTION_DOT": -4e-07, "MEAN_MOTION_DDOT": 0}, "tle": {"line1": "1 39166U 13023A   25335.24790720 -.00000040  00000+0  00000+0 0  9996", "line2": "2 39166  54.6621 277.0355 0137184  48.4883 312.6776  2.00565069 91914"}}, "geometry": {"type": "Point", "coordinates": [79.96214673818135, 22.422404049589087]}}, {"type": "Feature", "properties": {"norad_id": 39199, "name": "IRNSS-1A", "group": "gnss", "lat": -23.171674454211555, "lon": -76.14616031058505, "alt_km": 35714.08315493008, "timestamp": "2025-12-02T10:50:47.515179+00:00", "meta": {"OBJECT_NAME": "IRNSS-1A", "OBJECT_ID": "2013-034A", "EPOCH": "2025-11-29T20:16:50.456352", "MEAN_MOTION": 1.00278191, "ECCENTRICITY": 0.00217208, "INCLINATION": 35.2795, "RA_OF_ASC_NODE": 66.7394, "ARG_OF_PERICENTER": 185.4975, "MEAN_ANOMALY": 176.0627, "EPHEMERIS_TYPE": 0, "CLASSIFICATION_TYPE": "U", "NORAD_CAT_ID": 39199, "ELEMENT_SET_NO": 999, "REV_AT_EPOCH": 4537, "BSTAR": 0, "MEAN_MOTION_DOT": 8.1e-07, "MEAN_MOTION_DDOT": 0}, "tle": {"line1": "1 39199U 13034A   25333.84502843  .00000081  00000+0  00000+0 0  9999", "line2": "2 39199  35.2795  66.7394 0021720 185.4975 176.0627  1.00278191 45377"}}, "geometry": {"type": "Point", "coordinates": [-76.14616031058505, -23.171674454211555]}}, {"type": "Feature", "properties": {"norad_id": 39533, "name": "GPS BIIF-5  (PRN 30)", "group": "gnss", "lat": 22.354824582343355, "lon": -40.31049002331977, "alt_km": 20121.563317341275, "timestamp": "2025-12-02T10:50:47.515190+00:00", "meta": {"OBJECT_NAME": "GPS BIIF-5  (PRN 30)", "OBJECT_ID": "2014-008A", "EPOCH": "2025-12-01T17:47:12.743808", "MEAN_MOTION": 2.00573724, "ECCENTRICITY": 0.0078939, "INCLINATION": 53.6295, "RA_OF_ASC_NODE": 157.3734, "ARG_OF_PERICENTER": 226.3523, "MEAN_ANOMALY": 133.0365, "EPHEMERIS_TYPE": 0, "CLASSIFICATION_TYPE": "U", "NORAD_CAT_ID": 39533, "ELEMENT_SET_NO": 999, "REV_AT_EPOCH": 8572, "BSTAR": 0, "MEAN_MOTION_DOT": 1.22e-06, "MEAN_MOTION_DDOT": 0}, "tle": {"line1": "1 39533U 14008A   25335.74111972  .00000122  00000+0  00000+0 0  9999", "line2": "2 39533  53.6295 157.3734 0078939 226.3523 133.0365  2.00573724 85727"}}, "geometry": {"type": "Point", "coordinates": [-40.31049002331977, 22.354824582343355]}}, {"type": "Feature", "properties": {"norad_id": 39617, "name": "ASTRA 5B (EGNOS/PRN 123)", "group": "gnss", "lat": -0.05115652032861771, "lon": -102.2503846183338, "alt_km": 35765.601945267204, "timestamp": "2025-12-02T10:50:47.515202+00:00", "meta": {"OBJECT_NAME": "ASTRA 5B (EGNOS/PRN 123)", "OBJECT_ID": "2014-011B", "EPOCH": "2025-12-02T03:37:26.651424", "MEAN_MOTION": 1.00273303, "ECCENTRICITY": 0.0004763, "INCLINATION": 0.083, "RA_OF_ASC_NODE": 54.8199, "ARG_OF_PERICENTER": 209.7157, "MEAN_ANOMALY": 244.6133, "EPHEMERIS_TYPE": 0, "CLASSIFICATION_TYPE": "U", "NORAD_CAT_ID": 39617, "ELEMENT_SET_NO": 999, "REV_AT_EPOCH": 4269, "BSTAR": 0, "MEAN_MOTION_DOT": 1.58e-06, "MEAN_MOTION_DDOT": 0}, "tle": {"line1": "1 39617U 14011B   25336.15100291  .00000158  00000+0  00000+0 0  9993", "line2": "2 39617   0.0830  54.8199 0004763 209.7157 244.6133  1.00273303 42699"}}, "geometry": {"type": "Point", "coordinates": [-102.2503846183338, -0.05115652032861771]}}]}